Imaginary_66
1 54844U 22175W   24100.52217282  .00001245  00000+0  96324-4 0  0
2 54844  53.2156 287.4860 0001364  80.1829  345.9317 15.08840119 724288
Imaginary_67
1 54845U 22175W   24100.52217282  .00001245  00000+0  96324-4 0  1
2 54845  53.2156 287.4860 0001364  80.1829  346.9317 15.08840119 724280
Imaginary_68
1 54846U 22175W   24100.52217282  .00001245  00000+0  96324-4 0  2
2 54846  53.2156 287.4860 0001364  80.1829  347.9317 15.08840119 724282
Imaginary_69
1 54847U 22175W   24100.52217282  .00001245  00000+0  96324-4 0  3
2 54847  53.2156 287.4860 0001364  80.1829  348.9317 15.08840119 724284
Imaginary_70
1 54848U 22175W   24100.52217282  .00001245  00000+0  96324-4 0  4
2 54848  53.2156 287.4860 0001364  80.1829  349.9317 15.08840119 724286
Imaginary_71
1 54849U 22175W   24100.52217282  .00001245  00000+0  96324-4 0  5
2 54849  53.2156 287.4860 0001364  80.1829  350.9317 15.08840119 724289
Imaginary_72
1 54850U 22175W   24100.52217282  .00001245  00000+0  96324-4 0  7
2 54850  53.2156 287.4860 0001364  80.1829  351.9317 15.08840119 724282
Imaginary_73
1 54851U 22175W   24100.52217282  .00001245  00000+0  96324-4 0  8
2 54851  53.2156 287.4860 0001364  80.1829  352.9317 15.08840119 724284
Imaginary_74
1 54852U 22175W   24100.52217282  .00001245  00000+0  96324-4 0  9
2 54852  53.2156 287.4860 0001364  80.1829  353.9317 15.08840119 724286
Imaginary_75
1 54853U 22175W   24100.52217282  .00001245  00000+0  96324-4 0  0
2 54853  53.2156 287.4860 0001364  80.1829  354.9317 15.08840119 724288
Imaginary_76
1 54854U 22175W   24100.52217282  .00001245  00000+0  96324-4 0  1
2 54854  53.2156 287.4860 0001364  80.1829  355.9317 15.08840119 724280
Imaginary_77
1 54855U 22175W   24100.52217282  .00001245  00000+0  96324-4 0  2
2 54855  53.2156 287.4860 0001364  80.1829  356.9317 15.08840119 724282
Imaginary_78
1 54856U 22175W   24100.52217282  .00001245  00000+0  96324-4 0  3
2 54856  53.2156 287.4860 0001364  80.1829  357.9317 15.08840119 724284
Imaginary_79
1 54857U 22175W   24100.52217282  .00001245  00000+0  96324-4 0  4
2 54857  53.2156 287.4860 0001364  80.1829  358.9317 15.08840119 724286
Imaginary_80
1 54858U 22175W   24100.52217282  .00001245  00000+0  96324-4 0  5
2 54858  53.2156 287.4860 0001364  80.1829  359.9317 15.08840119 724288
Imaginary_81
1 54859U 22175W   24100.52217282  .00001245  00000+0  96324-4 0  6
2 54859  53.2156 287.4860 0001364  80.1829    0.9317 15.08840119 724282
Imaginary_82
1 54860U 22175W   24100.52217282  .00001245  00000+0  96324-4 0  8
2 54860  53.2156 287.4860 0001364  80.1829    1.9317 15.08840119 724285
Imaginary_83
1 54861U 22175W   24100.52217282  .00001245  00000+0  96324-4 0  9
2 54861  53.2156 287.4860 0001364  80.1829    2.9317 15.08840119 724287
Imaginary_84
1 54862U 22175W   24100.52217282  .00001245  00000+0  96324-4 0  0
2 54862  53.2156 287.4860 0001364  80.1829    3.9317 15.08840119 724289
Imaginary_85
1 54863U 22175W   24100.52217282  .00001245  00000+0  96324-4 0  1
2 54863  53.2156 287.4860 0001364  80.1829    4.9317 15.08840119 724281
Imaginary_86
1 54864U 22175W   24100.52217282  .00001245  00000+0  96324-4 0  2
2 54864  53.2156 287.4860 0001364  80.1829    5.9317 15.08840119 724283
Imaginary_87
1 54865U 22175W   24100.52217282  .00001245  00000+0  96324-4 0  3
2 54865  53.2156 287.4860 0001364  80.1829    6.9317 15.08840119 724285
Imaginary_88
1 54866U 22175W   24100.52217282  .00001245  00000+0  96324-4 0  4
2 54866  53.2156 287.4860 0001364  80.1829    7.9317 15.08840119 724287
Imaginary_89
1 54867U 22175W   24100.52217282  .00001245  00000+0  96324-4 0  5
2 54867  53.2156 287.4860 0001364  80.1829    8.9317 15.08840119 724289
